{"type": "FeatureCollection", "features": [ {"type": "Feature", "properties": {"norad_id": 30061, "name": "FENGYUN 1C DEB", "group": "fengyun-1c-debris", "lat": 45.218968232988374, "lon": 73.0770703150938, "alt_km": 1272.1167405590559, "timestamp": "2025-12-03T08:58:46.274944+00:00", "meta": {"OBJECT_NAME": "FENGYUN 1C DEB", "OBJECT_ID": "1999-025PN", "EPOCH": "2025-12-03T04:00:42.082272", "MEAN_MOTION": 13.46369149, "ECCENTRICITY": 0.0372308, "INCLINATION": 101.8757, "RA_OF_ASC_NODE": 85.0732, "ARG_OF_PERICENTER": 272.2147, "MEAN_ANOMALY": 208.4575, "EPHEMERIS_TYPE": 0, "CLASSIFICATION_TYPE": "U", "NORAD_CAT_ID": 30061, "ELEMENT_SET_NO": 999, "REV_AT_EPOCH": 91970, "BSTAR": 0.0033729, "MEAN_MOTION_DOT": 3.028e-05, "MEAN_MOTION_DDOT": 0}, "tle": {"line1": "1 30061U 99025PN  25337.16715373  .00003028  00000+0  33729-2 0  9996", "line2": "2 30061 101.8757  85.0732 0372308 272.2147 208.4575 13.46369149919707"}}, "geometry": {"type": "Point", "coordinates": [73.0770703150938, 45.218968232988374]}}, {"type": "Feature", "properties": {"norad_id": 30062, "name": "FENGYUN 1C DEB", "group": "fengyun-1c-debris", "lat": 69.91521961451164, "lon": -168.16230044972258, "alt_km": 832.5385993809205, "timestamp": "2025-12-03T08:58:46.274955+00:00", "meta": {"OBJECT_NAME": "FENGYUN 1C DEB", "OBJECT_ID": "1999-025PP", "EPOCH": "2025-12-03T00:04:39.542016", "MEAN_MOTION": 14.07090942, "ECCENTRICITY": 0.0049752, "INCLINATION": 98.7811, "RA_OF_ASC_NODE": 346.4708, "ARG_OF_PERICENTER": 75.2601, "MEAN_ANOMALY": 314.705, "EPHEMERIS_TYPE": 0, "CLASSIFICATION_TYPE": "U", "NORAD_CAT_ID": 30062, "ELEMENT_SET_NO": 999, "REV_AT_EPOCH": 96771, "BSTAR": 0.0003941, "MEAN_MOTION_DOT": 6.24e-06, "MEAN_MOTION_DDOT": 0}, "tle": {"line1": "1 30062U 99025PP  25337.00323544  .00000624  00000+0  39410-3 0  9998", "line2": "2 30062  98.7811 346.4708 0049752  75.2601 314.7050 14.07090942967713"}}, "geometry": {"type": "Point", "coordinates": [-168.16230044972258, 69.91521961451164]}}, {"type": "Feature", "properties": {"norad_id": 30063, "name": "FENGYUN 1C DEB", "group": "fengyun-1c-debris", "lat": -14.218259901587972, "lon": 134.42382842652415, "alt_km": 825.2231340910712, "timestamp": "2025-12-03T08:58:46.274965+00:00", "meta": {"OBJECT_NAME": "FENGYUN 1C DEB", "OBJECT_ID": "1999-025PQ", "EPOCH": "2025-12-03T04:47:23.426880", "MEAN_MOTION": 14.15606618, "ECCENTRICITY": 0.0032539, "INCLINATION": 98.5204, "RA_OF_ASC_NODE": 316.4338, "ARG_OF_PERICENTER": 161.1812, "MEAN_ANOMALY": 223.7378, "EPHEMERIS_TYPE": 0, "CLASSIFICATION_TYPE": "U", "NORAD_CAT_ID": 30063, "ELEMENT_SET_NO": 999, "REV_AT_EPOCH": 97530, "BSTAR": 0.00011157, "MEAN_MOTION_DOT": 1.78e-06, "MEAN_MOTION_DDOT": 0}, "tle": {"line1": "1 30063U 99025PQ  25337.19957670  .00000178  00000+0  11157-3 0  9994", "line2": "2 30063  98.5204 316.4338 0032539 161.1812 223.7378 14.15606618975306"}}, "geometry": {"type": "Point", "coordinates": [134.42382842652415, -14.218259901587972]}}, {"type": "Feature", "properties": {"norad_id": 30064, "name": "FENGYUN 1C DEB", "group": "fengyun-1c-debris", "lat": 3.481650797248445, "lon": -11.820746403768501, "alt_km": 880.4971253998701, "timestamp": "2025-12-03T08:58:46.274976+00:00", "meta": {"OBJECT_NAME": "FENGYUN 1C DEB", "OBJECT_ID": "1999-025PR", "EPOCH": "2025-12-03T00:45:09.471168", "MEAN_MOTION": 14.1425909, "ECCENTRICITY": 0.0066335, "INCLINATION": 98.662, "RA_OF_ASC_NODE": 348.3783, "ARG_OF_PERICENTER": 138.7764, "MEAN_ANOMALY": 281.1451, "EPHEMERIS_TYPE": 0, "CLASSIFICATION_TYPE": "U", "NORAD_CAT_ID": 30064, "ELEMENT_SET_NO": 999, "REV_AT_EPOCH": 97368, "BSTAR": 0.00021961, "MEAN_MOTION_DOT": 3.86e-06, "MEAN_MOTION_DDOT": 0}, "tle": {"line1": "1 30064U 99025PR  25337.03135962  .00000386  00000+0  21961-3 0  9995", "line2": "2 30064  98.6620 348.3783 0066335 138.7764 281.1451 14.14259090973681"}}, "geometry": {"type": "Point", "coordinates": [-11.820746403768501, 3.481650797248445]}}, {"type": "Feature", "properties": {"norad_id": 30065, "name": "FENGYUN 1C DEB", "group": "fengyun-1c-debris", "lat": 17.073792781163817, "lon": 133.55841045914303, "alt_km": 964.6572721441125, "timestamp": "2025-12-03T08:58:46.274986+00:00", "meta": {"OBJECT_NAME": "FENGYUN 1C DEB", "OBJECT_ID": "1999-025PS", "EPOCH": "2025-12-03T04:44:53.801952", "MEAN_MOTION": 13.86909062, "ECCENTRICITY": 0.0131953, "INCLINATION": 98.683, "RA_OF_ASC_NODE": 310.7045, "ARG_OF_PERICENTER": 57.5114, "MEAN_ANOMALY": 303.8719, "EPHEMERIS_TYPE": 0, "CLASSIFICATION_TYPE": "U", "NORAD_CAT_ID": 30065, "ELEMENT_SET_NO": 999, "REV_AT_EPOCH": 95539, "BSTAR": 0.00021637, "MEAN_MOTION_DOT": 2.32e-06, "MEAN_MOTION_DDOT": 0}, "tle": {"line1": "1 30065U 99025PS  25337.19784493  .00000232  00000+0  21637-3 0  9992", "line2": "2 30065  98.6830 310.7045 0131953  57.5114 303.8719 13.86909062955391"}}, "geometry": {"type": "Point", "coordinates": [133.55841045914303, 17.073792781163817]}}, {"type": "Feature", "properties": {"norad_id": 30066, "name": "FENGYUN 1C DEB", "group": "fengyun-1c-debris", "lat": 27.377261207189093, "lon": -36.46640508241689, "alt_km": 838.9450707111291, "timestamp": "2025-12-03T08:58:46.274996+00:00", "meta": {"OBJECT_NAME": "FENGYUN 1C DEB", "OBJECT_ID": "1999-025PT", "EPOCH": "2025-12-02T22:57:09.097056", "MEAN_MOTION": 14.19096734, "ECCENTRICITY": 0.0116801, "INCLINATION": 98.6336, "RA_OF_ASC_NODE": 327.6391, "ARG_OF_PERICENTER": 290.3661, "MEAN_ANOMALY": 122.9396, "EPHEMERIS_TYPE": 0, "CLASSIFICATION_TYPE": "U", "NORAD_CAT_ID": 30066, "ELEMENT_SET_NO": 999, "REV_AT_EPOCH": 97698, "BSTAR": 0.00025023, "MEAN_MOTION_DOT": 5.16e-06, "MEAN_MOTION_DDOT": 0}, "tle": {"line1": "1 30066U 99025PT  25336.95635529  .00000516  00000+0  25023-3 0  9999", "line2": "2 30066  98.6336 327.6391 0116801 290.3661 122.9396 14.19096734976982"}}, "geometry": {"type": "Point", "coordinates": [-36.46640508241689, 27.377261207189093]}}, {"type": "Feature", "properties": {"norad_id": 30067, "name": "FENGYUN 1C DEB", "group": "fengyun-1c-debris", "lat": -22.860769398415886, "lon": 39.44577514251492, "alt_km": 851.6217219607242, "timestamp": "2025-12-03T08:58:46.275006+00:00", "meta": {"OBJECT_NAME": "FENGYUN 1C DEB", "OBJECT_ID": "1999-025PU", "EPOCH": "2025-12-03T03:45:19.108224", "MEAN_MOTION": 14.43637601, "ECCENTRICITY": 0.0152345, "INCLINATION": 98.7659, "RA_OF_ASC_NODE": 222.9516, "ARG_OF_PERICENTER": 46.6112, "MEAN_ANOMALY": 105.1055, "EPHEMERIS_TYPE": 0, "CLASSIFICATION_TYPE": "U", "NORAD_CAT_ID": 30067, "ELEMENT_SET_NO": 999, "REV_AT_EPOCH": 99060, "BSTAR": 0.00048789, "MEAN_MOTION_DOT": 1.853e-05, "MEAN_MOTION_DDOT": 0}, "tle": {"line1": "1 30067U 99025PU  25337.15647116  .00001853  00000+0  48789-3 0  9997", "line2": "2 30067  98.7659 222.9516 0152345  46.6112 105.1055 14.43637601990605"}}, "geometry": {"type": "Point", "coordinates": [39.44577514251492, -22.860769398415886]}}, {"type": "Feature", "properties": {"norad_id": 30068, "name": "FENGYUN 1C DEB", "group": "fengyun-1c-debris", "lat": 66.93337739395143, "lon": -55.7479635687583, "alt_km": 761.5859756645277, "timestamp": "2025-12-03T08:58:46.275017+00:00", "meta": {"OBJECT_NAME": "FENGYUN 1C DEB", "OBJECT_ID": "1999-025PV", "EPOCH": "2025-12-02T22:27:47.840832", "MEAN_MOTION": 14.12032345, "ECCENTRICITY": 0.0190505, "INCLINATION": 98.7359, "RA_OF_ASC_NODE": 324.9907, "ARG_OF_PERICENTER": 16.7018, "MEAN_ANOMALY": 344.0314, "EPHEMERIS_TYPE": 0, "CLASSIFICATION_TYPE": "U", "NORAD_CAT_ID": 30068, "ELEMENT_SET_NO": 999, "REV_AT_EPOCH": 97205, "BSTAR": 0.00026487, "MEAN_MOTION_DOT": 5.33e-06, "MEAN_MOTION_DDOT": 0}, "tle": {"line1": "1 30068U 99025PV  25336.93597038  .00000533  00000+0  26487-3 0  9995", "line2": "2 30068  98.7359 324.9907 0190505  16.7018 344.0314 14.12032345972054"}}, "geometry": {"type": "Point", "coordinates": [-55.7479635687583, 66.93337739395143]}}, {"type": "Feature", "properties": {"norad_id": 30069, "name": "FENGYUN 1C DEB", "group": "fengyun-1c-debris", "lat": 17.85489032045065, "lon": -43.36036754687095, "alt_km": 858.267664138064, "timestamp": "2025-12-03T08:58:46.275027+00:00", "meta": {"OBJECT_NAME": "FENGYUN 1C DEB", "OBJECT_ID": "1999-025PW", "EPOCH": "2025-12-02T21:12:27.068832", "MEAN_MOTION": 14.05211452, "ECCENTRICITY": 0.0049944, "INCLINATION": 98.8004, "RA_OF_ASC_NODE": 319.024, "ARG_OF_PERICENTER": 80.2993, "MEAN_ANOMALY": 338.4338, "EPHEMERIS_TYPE": 0, "CLASSIFICATION_TYPE": "U", "NORAD_CAT_ID": 30069, "ELEMENT_SET_NO": 999, "REV_AT_EPOCH": 96708, "BSTAR": 0.00039168, "MEAN_MOTION_DOT": 5.98e-06, "MEAN_MOTION_DDOT": 0}, "tle": {"line1": "1 30069U 99025PW  25336.88364663  .00000598  00000+0  39168-3 0  9997", "line2": "2 30069  98.8004 319.0240 0049944  80.2993 338.4338 14.05211452967086"}}, "geometry": {"type": "Point", "coordinates": [-43.36036754687095, 17.85489032045065]}}, {"type": "Feature", "properties": {"norad_id": 30070, "name": "FENGYUN 1C DEB", "group": "fengyun-1c-debris", "lat": 14.490343648447604, "lon": 35.56662499361755, "alt_km": 650.6125455159363, "timestamp": "2025-12-03T08:58:46.275037+00:00", "meta": {"OBJECT_NAME": "FENGYUN 1C DEB", "OBJECT_ID": "1999-025PX", "EPOCH": "2025-12-03T04:04:33.628224", "MEAN_MOTION": 14.09775437, "ECCENTRICITY": 0.0328759, "INCLINATION": 98.2884, "RA_OF_ASC_NODE": 37.537, "ARG_OF_PERICENTER": 346.569, "MEAN_ANOMALY": 70.0738, "EPHEMERIS_TYPE": 0, "CLASSIFICATION_TYPE": "U", "NORAD_CAT_ID": 30070, "ELEMENT_SET_NO": 999, "REV_AT_EPOCH": 95744, "BSTAR": 0.0017556, "MEAN_MOTION_DOT": 5.06e-05, "MEAN_MOTION_DDOT": 0}, "tle": {"line1": "1 30070U 99025PX  25337.16983366  .00005060  00000+0  17556-2 0  9993", "line2": "2 30070  98.2884  37.5370 0328759 346.5690  70.0738 14.09775437957444"}}, "geometry": {"type": "Point", "coordinates": [35.56662499361755, 14.490343648447604]}}]}